{"type": "FeatureCollection", "features": [ {"type": "Feature", "properties": {"norad_id": 38552, "name": "METEOSAT-10 (MSG-3)", "group": "weather", "lat": 3.954249270808602, "lon": 172.68975745819864, "alt_km": 35787.09044761769, "timestamp": "2025-12-16T05:49:08.866046+00:00", "meta": {"OBJECT_NAME": "METEOSAT-10 (MSG-3)", "OBJECT_ID": "2012-035B", "EPOCH": "2025-12-15T21:56:54.533184", "MEAN_MOTION": 1.00275899, "ECCENTRICITY": 7.151e-05, "INCLINATION": 4.2361, "RA_OF_ASC_NODE": 61.7164, "ARG_OF_PERICENTER": 264.5469, "MEAN_ANOMALY": 87.9948, "EPHEMERIS_TYPE": 0, "CLASSIFICATION_TYPE": "U", "NORAD_CAT_ID": 38552, "ELEMENT_SET_NO": 999, "REV_AT_EPOCH": 4901, "BSTAR": 0, "MEAN_MOTION_DOT": 1.5e-07, "MEAN_MOTION_DDOT": 0}, "tle": {"line1": "1 38552U 12035B   25349.91452006  .00000015  00000+0  00000+0 0  9998", "line2": "2 38552   4.2361  61.7164 0000715 264.5469  87.9948  1.00275899 49015"}}, "geometry": {"type": "Point", "coordinates": [172.68975745819864, 3.954249270808602]}}, {"type": "Feature", "properties": {"norad_id": 38771, "name": "METOP-B", "group": "weather", "lat": 1.2197284378902875, "lon": 39.955445339558025, "alt_km": 824.8850713019992, "timestamp": "2025-12-16T05:49:08.866057+00:00", "meta": {"OBJECT_NAME": "METOP-B", "OBJECT_ID": "2012-049A", "EPOCH": "2025-12-15T21:21:58.470048", "MEAN_MOTION": 14.21409483, "ECCENTRICITY": 0.00030262, "INCLINATION": 98.6797, "RA_OF_ASC_NODE": 39.7956, "ARG_OF_PERICENTER": 137.3131, "MEAN_ANOMALY": 222.8282, "EPHEMERIS_TYPE": 0, "CLASSIFICATION_TYPE": "U", "NORAD_CAT_ID": 38771, "ELEMENT_SET_NO": 999, "REV_AT_EPOCH": 68722, "BSTAR": 8.0174834e-05, "MEAN_MOTION_DOT": 1.32e-06, "MEAN_MOTION_DDOT": 0}, "tle": {"line1": "1 38771U 12049A   25349.89026007  .00000132  00000+0  80175-4 0  9997", "line2": "2 38771  98.6797  39.7956 0003026 137.3131 222.8282 14.21409483687220"}}, "geometry": {"type": "Point", "coordinates": [39.955445339558025, 1.2197284378902875]}}, {"type": "Feature", "properties": {"norad_id": 39216, "name": "INSAT-3D", "group": "weather", "lat": -0.8891401296478939, "lon": -58.082790522551726, "alt_km": 35783.75275464267, "timestamp": "2025-12-16T05:49:08.866069+00:00", "meta": {"OBJECT_NAME": "INSAT-3D", "OBJECT_ID": "2013-038B", "EPOCH": "2025-12-15T20:51:08.332416", "MEAN_MOTION": 1.00268682, "ECCENTRICITY": 0.00012734, "INCLINATION": 1.4526, "RA_OF_ASC_NODE": 84.9619, "ARG_OF_PERICENTER": 165.5612, "MEAN_ANOMALY": 276.5343, "EPHEMERIS_TYPE": 0, "CLASSIFICATION_TYPE": "U", "NORAD_CAT_ID": 39216, "ELEMENT_SET_NO": 999, "REV_AT_EPOCH": 4524, "BSTAR": 0, "MEAN_MOTION_DOT": -3.17e-06, "MEAN_MOTION_DDOT": 0}, "tle": {"line1": "1 39216U 13038B   25349.86884644 -.00000317  00000+0  00000+0 0  9997", "line2": "2 39216   1.4526  84.9619 0001273 165.5612 276.5343  1.00268682 45245"}}, "geometry": {"type": "Point", "coordinates": [-58.082790522551726, -0.8891401296478939]}}, {"type": "Feature", "properties": {"norad_id": 39260, "name": "FENGYUN 3C", "group": "weather", "lat": 3.482802985702312, "lon": 148.27084245457584, "alt_km": 832.0999936724511, "timestamp": "2025-12-16T05:49:08.866080+00:00", "meta": {"OBJECT_NAME": "FENGYUN 3C", "OBJECT_ID": "2013-052A", "EPOCH": "2025-12-15T22:12:12.765600", "MEAN_MOTION": 14.15697282, "ECCENTRICITY": 0.00144476, "INCLINATION": 98.4766, "RA_OF_ASC_NODE": 327.449, "ARG_OF_PERICENTER": 186.6565, "MEAN_ANOMALY": 173.442, "EPHEMERIS_TYPE": 0, "CLASSIFICATION_TYPE": "U", "NORAD_CAT_ID": 39260, "ELEMENT_SET_NO": 999, "REV_AT_EPOCH": 63263, "BSTAR": 7.9833886e-05, "MEAN_MOTION_DOT": 1.16e-06, "MEAN_MOTION_DDOT": 0}, "tle": {"line1": "1 39260U 13052A   25349.92514775  .00000116  00000+0  79834-4 0  9996", "line2": "2 39260  98.4766 327.4490 0014447 186.6565 173.4420 14.15697282632634"}}, "geometry": {"type": "Point", "coordinates": [148.27084245457584, 3.482802985702312]}}, {"type": "Feature", "properties": {"norad_id": 40069, "name": "METEOR-M 2", "group": "weather", "lat": -48.777455373941365, "lon": 137.87667600162555, "alt_km": 824.2946310881562, "timestamp": "2025-12-16T05:49:08.866090+00:00", "meta": {"OBJECT_NAME": "METEOR-M 2", "OBJECT_ID": "2014-037A", "EPOCH": "2025-12-15T21:59:06.948960", "MEAN_MOTION": 14.21389252, "ECCENTRICITY": 0.00051487, "INCLINATION": 98.4901, "RA_OF_ASC_NODE": 327.379, "ARG_OF_PERICENTER": 199.6569, "MEAN_ANOMALY": 160.4411, "EPHEMERIS_TYPE": 0, "CLASSIFICATION_TYPE": "U", "NORAD_CAT_ID": 40069, "ELEMENT_SET_NO": 999, "REV_AT_EPOCH": 59328, "BSTAR": 0.00024042061, "MEAN_MOTION_DOT": 4.83e-06, "MEAN_MOTION_DDOT": 0}, "tle": {"line1": "1 40069U 14037A   25349.91605265  .00000483  00000+0  24042-3 0  9990", "line2": "2 40069  98.4901 327.3790 0005148 199.6569 160.4411 14.21389252593287"}}, "geometry": {"type": "Point", "coordinates": [137.87667600162555, -48.777455373941365]}}, {"type": "Feature", "properties": {"norad_id": 40267, "name": "HIMAWARI-8", "group": "weather", "lat": 0.002655569785344039, "lon": -46.91776592133688, "alt_km": 35782.46105890064, "timestamp": "2025-12-16T05:49:08.866102+00:00", "meta": {"OBJECT_NAME": "HIMAWARI-8", "OBJECT_ID": "2014-060A", "EPOCH": "2025-12-15T20:54:15.532704", "MEAN_MOTION": 1.00272851, "ECCENTRICITY": 8.916e-05, "INCLINATION": 0.0176, "RA_OF_ASC_NODE": 160.9257, "ARG_OF_PERICENTER": 125.6261, "MEAN_ANOMALY": 252.4478, "EPHEMERIS_TYPE": 0, "CLASSIFICATION_TYPE": "U", "NORAD_CAT_ID": 40267, "ELEMENT_SET_NO": 999, "REV_AT_EPOCH": 4092, "BSTAR": 0, "MEAN_MOTION_DOT": -2.53e-06, "MEAN_MOTION_DDOT": 0}, "tle": {"line1": "1 40267U 14060A   25349.87101311 -.00000253  00000+0  00000+0 0  9994", "line2": "2 40267   0.0176 160.9257 0000891 125.6261 252.4478  1.00272851 40929"}}, "geometry": {"type": "Point", "coordinates": [-46.91776592133688, 0.002655569785344039]}}, {"type": "Feature", "properties": {"norad_id": 40367, "name": "FENGYUN 2G", "group": "weather", "lat": -1.5163092189808745, "lon": -88.22302260952692, "alt_km": 35776.2882434246, "timestamp": "2025-12-16T05:49:08.866114+00:00", "meta": {"OBJECT_NAME": "FENGYUN 2G", "OBJECT_ID": "2014-090A", "EPOCH": "2025-12-15T18:59:44.414592", "MEAN_MOTION": 1.00263196, "ECCENTRICITY": 0.00029567, "INCLINATION": 5.1761, "RA_OF_ASC_NODE": 75.0635, "ARG_OF_PERICENTER": 202.0383, "MEAN_ANOMALY": 191.9641, "EPHEMERIS_TYPE": 0, "CLASSIFICATION_TYPE": "U", "NORAD_CAT_ID": 40367, "ELEMENT_SET_NO": 999, "REV_AT_EPOCH": 4016, "BSTAR": 0, "MEAN_MOTION_DOT": -2.81e-06, "MEAN_MOTION_DDOT": 0}, "tle": {"line1": "1 40367U 14090A   25349.79148628 -.00000281  00000+0  00000+0 0  9992", "line2": "2 40367   5.1761  75.0635 0002956 202.0383 191.9641  1.00263196 40168"}}, "geometry": {"type": "Point", "coordinates": [-88.22302260952692, -1.5163092189808745]}}, {"type": "Feature", "properties": {"norad_id": 40732, "name": "METEOSAT-11 (MSG-4)", "group": "weather", "lat": 2.576547606257745, "lon": -178.32535270812807, "alt_km": 35783.115995865686, "timestamp": "2025-12-16T05:49:08.866125+00:00", "meta": {"OBJECT_NAME": "METEOSAT-11 (MSG-4)", "OBJECT_ID": "2015-034A", "EPOCH": "2025-12-15T21:59:31.782048", "MEAN_MOTION": 1.00268483, "ECCENTRICITY": 9.037e-05, "INCLINATION": 2.7437, "RA_OF_ASC_NODE": 71.9932, "ARG_OF_PERICENTER": 131.0549, "MEAN_ANOMALY": 220.8943, "EPHEMERIS_TYPE": 0, "CLASSIFICATION_TYPE": "U", "NORAD_CAT_ID": 40732, "ELEMENT_SET_NO": 999, "REV_AT_EPOCH": 537, "BSTAR": 0, "MEAN_MOTION_DOT": 8.2e-07, "MEAN_MOTION_DDOT": 0}, "tle": {"line1": "1 40732U 15034A   25349.91634007  .00000082  00000+0  00000+0 0  9990", "line2": "2 40732   2.7437  71.9932 0000903 131.0549 220.8943  1.00268483  5372"}}, "geometry": {"type": "Point", "coordinates": [-178.32535270812807, 2.576547606257745]}}, {"type": "Feature", "properties": {"norad_id": 41105, "name": "ELEKTRO-L 2", "group": "weather", "lat": 6.217144613325378, "lon": 157.86298900913658, "alt_km": 35793.84365036332, "timestamp": "2025-12-16T05:49:08.866137+00:00", "meta": {"OBJECT_NAME": "ELEKTRO-L 2", "OBJECT_ID": "2015-074A", "EPOCH": "2025-12-15T01:19:59.895840", "MEAN_MOTION": 1.00272551, "ECCENTRICITY": 0.00038379, "INCLINATION": 6.2318, "RA_OF_ASC_NODE": 72.8015, "ARG_OF_PERICENTER": 207.9334, "MEAN_ANOMALY": 168.7361, "EPHEMERIS_TYPE": 0, "CLASSIFICATION_TYPE": "U", "NORAD_CAT_ID": 41105, "ELEMENT_SET_NO": 999, "REV_AT_EPOCH": 3666, "BSTAR": 0, "MEAN_MOTION_DOT": -1e-06, "MEAN_MOTION_DDOT": 0}, "tle": {"line1": "1 41105U 15074A   25349.05555435 -.00000100  00000+0  00000+0 0  9993", "line2": "2 41105   6.2318  72.8015 0003837 207.9334 168.7361  1.00272551 36661"}}, "geometry": {"type": "Point", "coordinates": [157.86298900913658, 6.217144613325378]}}, {"type": "Feature", "properties": {"norad_id": 41752, "name": "INSAT-3DR", "group": "weather", "lat": 0.008364298286741189, "lon": -113.66613753330823, "alt_km": 35731.5403533597, "timestamp": "2025-12-16T05:49:08.866149+00:00", "meta": {"OBJECT_NAME": "INSAT-3DR", "OBJECT_ID": "2016-054A", "EPOCH": "2025-12-15T22:18:00.014112", "MEAN_MOTION": 1.00271522, "ECCENTRICITY": 0.0014198, "INCLINATION": 0.0999, "RA_OF_ASC_NODE": 86.7073, "ARG_OF_PERICENTER": 184.4932, "MEAN_ANOMALY": 222.1178, "EPHEMERIS_TYPE": 0, "CLASSIFICATION_TYPE": "U", "NORAD_CAT_ID": 41752, "ELEMENT_SET_NO": 999, "REV_AT_EPOCH": 3398, "BSTAR": 0, "MEAN_MOTION_DOT": -5.4e-07, "MEAN_MOTION_DDOT": 0}, "tle": {"line1": "1 41752U 16054A   25349.92916683 -.00000054  00000+0  00000+0 0  9990", "line2": "2 41752   0.0999  86.7073 0014198 184.4932 222.1178  1.00271522 33989"}}, "geometry": {"type": "Point", "coordinates": [-113.66613753330823, 0.008364298286741189]}}]}